FENGYUN 1C DEB          
1 37919U 99025ENU 17344.26196011  .00000184  00000-0  10374-3 0  9990
2 37919  99.1541 140.0765 0052868 100.9669 259.7460 14.21685827408967
